STARLINK-37076          
1 68173U 26050G   26181.10181479  .00027444  00000+0  81998-3 0  9995
2 68173  53.1589 103.2086 0001216 143.3648 216.7438 15.34416174 17912
STARLINK-37078          
1 68174U 26050H   26181.74476223  .00041481  00000+0  12319-2 0  9997
2 68174  53.1579 100.1088 0001603 125.5528 234.5624 15.34402629 18016
STARLINK-36905          
1 68176U 26050K   26181.09129588  .00020862  00000+0  62666-3 0  9997
2 68176  53.1575 103.1417 0001191 113.0355 247.0773 15.34410290 17910
STARLINK-36668          
1 68177U 26050L   26181.78044288  .00030554  00000+0  91142-3 0  9997
2 68177  53.1585  99.6422 0001260 101.9732 258.1412 15.34411121 18029
STARLINK-36677          
1 68178U 26050M   26181.79096185  .00020386  00000+0  61279-3 0  9992
2 68178  53.1574  99.6826 0001317 100.3907 259.7244 15.34403297 18021
STARLINK-37035          
1 68180U 26050P   26181.07025444  .00036125  00000+0  10752-2 0  9993
2 68180  53.1591 103.0183 0001145  87.0887 273.0247 15.34398365 17914
STARLINK-37032          
1 68181U 26050Q   26181.80360603  .00031162  00000+0  92903-3 0  9999
2 68181  53.1589  99.7757 0001181  95.7683 264.3454 15.34419533 18027
STARLINK-37082          
1 68182U 26050R   26181.80568248  .00032651  00000+0  97306-3 0  9991
2 68182  53.1572  99.7888 0000901 121.5404 238.5686 15.34407297 18027
STARLINK-37102          
1 68183U 26050S   26181.78465062  .00044394  00000+0  13168-2 0  9999
2 68183  53.1603  99.6585 0001165  91.7622 268.3514 15.34410914 18020
STARLINK-36964          
1 68184U 26050T   26181.79937953  .00045315  00000+0  13439-2 0  9999
2 68184  53.1588  99.7490 0001539 136.9092 223.2031 15.34407685 18022
STARLINK-37061          
1 68185U 26050U   26181.04501081  .00026342  00000+0  78806-3 0  9996
2 68185  53.1599 102.8568 0000972  49.0226 311.0861 15.34399203 17910
STARLINK-37006          
1 68187U 26050W   26181.75109160  .00041634  00000+0  12358-2 0  9998
2 68187  53.1583 100.1488 0001297  75.8256 284.2890 15.34417990 18017
STARLINK-37071          
1 68190U 26050Z   26181.10392009  .00021777  00000+0  65363-3 0  9998
2 68190  53.1603 103.2163 0001463 120.7273 239.3874 15.34408082 17915
STARLINK-37091          
1 68191U 26050AA  26181.79727179  .00035682  00000+0  10616-2 0  9994
2 68191  53.1578  99.7208 0000662  86.1077 274.0001 15.34418213 18021
STARLINK-37098          
1 68192U 26050AB  26181.07235947  .00028505  00000+0  85141-3 0  9995
2 68192  53.1586 103.0227 0001258  99.8880 260.2265 15.34406607 17916
STARLINK-37090          
1 68193U 26050AC  26181.80148097  .00040935  00000+0  12158-2 0  9994
2 68193  53.1588  99.7515 0001414 106.8195 253.2963 15.34406823 18022
STARLINK-37093          
1 68194U 26050AD  26181.07656715  .00029200  00000+0  87182-3 0  9997
2 68194  53.1576 103.0481 0001157 104.3001 255.8130 15.34406526 17915
YAOGAN-50 02            
1 68196U 26051A   26181.50000412  .00000286  00000+0  89525-4 0  9992
2 68196 141.9913  31.8927 0000817 253.3036 106.7594 13.83272233 14830
