OBJECT_NAME,OBJECT_ID,EPOCH,MEAN_MOTION,ECCENTRICITY,INCLINATION,RA_OF_ASC_NODE,ARG_OF_PERICENTER,MEAN_ANOMALY,EPHEMERIS_TYPE,CLASSIFICATION_TYPE,NORAD_CAT_ID,ELEMENT_SET_NO,REV_AT_EPOCH,BSTAR,MEAN_MOTION_DOT,MEAN_MOTION_DDOT
STARLINK-37076,2026-050G,2026-06-30T02:26:36.797856,15.34416174,.00012163,53.1589,103.2086,143.3648,216.7438,0,U,68173,999,1791,.81997956E-3,.27444E-3,0
STARLINK-37078,2026-050H,2026-06-30T17:52:27.457536,15.34402629,.00016031,53.1579,100.1088,125.5528,234.5624,0,U,68174,999,1801,.1231939E-2,.41481E-3,0
STARLINK-36905,2026-050K,2026-06-30T02:11:27.964032,15.34410290,.00011918,53.1575,103.1417,113.0355,247.0773,0,U,68176,999,1791,.62666133E-3,.20862E-3,0
STARLINK-36668,2026-050L,2026-06-30T18:43:50.265696,15.34411121,.00012595,53.1585,99.6422,101.9732,258.1412,0,U,68177,999,1802,.91142397E-3,.30554E-3,0
STARLINK-36677,2026-050M,2026-06-30T18:58:59.104704,15.34403297,.00013175,53.1574,99.6826,100.3907,259.7244,0,U,68178,999,1802,.61278872E-3,.20386E-3,0
STARLINK-37035,2026-050P,2026-06-30T01:41:09.983616,15.34398365,.00011456,53.1591,103.0183,87.0887,273.0247,0,U,68180,999,1791,.10752254E-2,.36125E-3,0
STARLINK-37032,2026-050Q,2026-06-30T19:17:11.561856,15.34419533,.0001181,53.1589,99.7757,95.7683,264.3454,0,U,68181,999,1802,.92902971E-3,.31162E-3,0
STARLINK-37082,2026-050R,2026-06-30T19:20:10.966272,15.34407297,.00009013,53.1572,99.7888,121.5404,238.5686,0,U,68182,999,1802,.97305528E-3,.32651E-3,0
STARLINK-37102,2026-050S,2026-06-30T18:49:53.814432,15.34410914,.00011652,53.1603,99.6585,91.7622,268.3514,0,U,68183,999,1802,.13168418E-2,.44394E-3,0
STARLINK-36964,2026-050T,2026-06-30T19:11:06.391392,15.34407685,.00015394,53.1588,99.7490,136.9092,223.2031,0,U,68184,999,1802,.13438713E-2,.45315E-3,0
STARLINK-37061,2026-050U,2026-06-30T01:04:48.933984,15.34399203,.00009728,53.1599,102.8568,49.0226,311.0861,0,U,68185,999,1791,.78805584E-3,.26342E-3,0
STARLINK-37006,2026-050W,2026-06-30T18:01:34.314240,15.34417990,.00012968,53.1583,100.1488,75.8256,284.2890,0,U,68187,999,1801,.1235814E-2,.41634E-3,0
STARLINK-37071,2026-050Z,2026-06-30T02:29:38.695776,15.34408082,.00014638,53.1603,103.2163,120.7273,239.3874,0,U,68190,999,1791,.653627E-3,.21777E-3,0
STARLINK-37091,2026-050AA,2026-06-30T19:08:04.283520,15.34418213,.00006618,53.1578,99.7208,86.1077,274.0001,0,U,68191,999,1802,.10615771E-2,.35682E-3,0
STARLINK-37098,2026-050AB,2026-06-30T01:44:11.858208,15.34406607,.00012588,53.1586,103.0227,99.8880,260.2265,0,U,68192,999,1791,.85141076E-3,.28505E-3,0
STARLINK-37090,2026-050AC,2026-06-30T19:14:07.956672,15.34406823,.00014143,53.1588,99.7515,106.8195,253.2963,0,U,68193,999,1802,.12158144E-2,.40935E-3,0
STARLINK-37093,2026-050AD,2026-06-30T01:50:15.401760,15.34406526,.00011572,53.1576,103.0481,104.3001,255.8130,0,U,68194,999,1791,.87181654E-3,.292E-3,0
YAOGAN-50 02,2026-051A,2026-06-30T12:00:00.355968,13.83272233,.0000817,141.9913,31.8927,253.3036,106.7594,0,U,68196,999,1483,.89525397E-4,.286E-5,0
